IRIDIUM 126             
1 42809U 17039G   25086.69989541  .00000740  00000+0  25698-3 0  9998
2 42809  86.4046 180.2356 0002339  88.5182 271.6282 14.34219332405950
IRIDIUM 124             
1 42810U 17039H   25087.46308090  .00001050  00000+0  30625-3 0  9991
2 42810  86.4455 116.7363 0002006  90.2197 269.9233 14.43275219410829
IRIDIUM 128             
1 42811U 17039J   25086.69063273  .00000731  00000+0  25408-3 0  9995
2 42811  86.4011 211.6979 0001783  97.4837 262.6561 14.34217772405982
IRIDIUM 121             
1 42812U 17039K   25087.48637645  .00000581  00000+0  20041-3 0  9995
2 42812  86.4047 179.9317 0002298 104.4584 255.6866 14.34217608406062
IRIDIUM 133             
1 42955U 17061A   25087.42003397  .00000820  00000+0  28578-3 0  9992
2 42955  86.4020 211.5001 0002022  94.6496 265.4931 14.34217135390880
IRIDIUM 100             
1 42956U 17061B   25086.78576517  .00000887  00000+0  30970-3 0  9992
2 42956  86.4007 211.6931 0001770  93.7113 266.4285 14.34216675390795
IRIDIUM 122             
1 42957U 17061C   25087.38197599  .00000016  00000+0 -15024-5 0  9999
2 42957  86.4013 211.4438 0001937  89.0375 271.1042 14.34218506390885
IRIDIUM 129             
1 42958U 17061D   25086.91896538  .00000343  00000+0  11531-3 0  9996
2 42958  86.4015 211.6993 0002498  98.4058 261.7421 14.34217222390836
